ONEWEB-0328             
1 49197U 21083M   25045.45629599 -.00000025  00000+0 -10276-3 0  9996
2 49197  87.8871  57.1744 0001886  86.1941 273.9403 13.13472536166872
ONEWEB-0331             
1 49198U 21083N   25045.49018698  .00000056  00000+0  10908-3 0  9997
2 49198  87.9047  72.4505 0001664  85.4794 274.6528 13.18686402165730
ONEWEB-0333             
1 49199U 21083P   25045.45152635 -.00000297  00000+0 -84743-3 0  9991
2 49199  87.8882  57.2280 0001930  92.5759 267.5591 13.13469671166884
ONEWEB-0334             
1 49200U 21083Q   25045.40239955  .00000147  00000+0  33872-3 0  9999
2 49200  87.9289  11.5253 0002346 104.6981 255.4412 13.19205990172407
ONEWEB-0335             
1 49201U 21083R   25045.44676502 -.00000360  00000+0 -10204-2 0  9999
2 49201  87.8881  57.2174 0001612  86.9954 273.1359 13.13469718166898
ONEWEB-0336             
1 49202U 21083S   25045.49278700 -.00000100  00000+0 -30877-3 0  9994
2 49202  87.8883  57.2025 0001759  94.3801 265.7529 13.13468941166895
ONEWEB-0337             
1 49203U 21083T   25045.50217329 -.00000267  00000+0 -76661-3 0  9992
2 49203  87.8886  57.1990 0001840  84.9570 275.1769 13.13469023166891
ONEWEB-0338             
1 49204U 21083U   25045.39506260  .00000094  00000+0  19997-3 0  9990
2 49204  87.9294  11.5179 0002181  90.3138 269.8245 13.20773678172426
ONEWEB-0339             
1 49205U 21083V   25045.51340728 -.00000305  00000+0 -87022-3 0  9991
2 49205  87.8882  57.1876 0001954  87.2663 272.8689 13.13467975166874
ONEWEB-0340             
1 49206U 21083W   25045.47596252  .00000047  00000+0  85292-4 0  9991
2 49206  87.9050  72.4502 0001785  90.3536 269.7800 13.18686990165699
ONEWEB-0341             
1 49207U 21083X   25045.48386368  .00000055  00000+0  10768-3 0  9992
2 49207  87.9051  72.4597 0002249  78.9372 281.2013 13.18685436165713
ONEWEB-0342             
1 49208U 21083Y   25045.40138567  .00000086  00000+0  17914-3 0  9995
2 49208  87.9286  11.5062 0001966  85.1264 275.0094 13.20772012172392
ONEWEB-0343             
1 49209U 21083Z   25045.47910867  .00000073  00000+0  15170-3 0  9992
2 49209  87.9044  72.4533 0002505  85.7174 274.4244 13.18687840165764
ONEWEB-0344             
1 49210U 21083AA  25045.48009941  .00000361  00000+0  95285-3 0  9992
2 49210  87.8885  57.2176 0001948  77.5360 282.5987 13.13470546166873
ONEWEB-0345             
1 49211U 21083AB  25045.49754498  .00000021  00000+0  22755-4 0  9994
2 49211  87.8882  57.1824 0002002  75.9290 284.2061 13.13467444166882
ONEWEB-0346             
1 49212U 21083AC  25045.48861866  .00000038  00000+0  62771-4 0  9992
2 49212  87.9047  72.4678 0001420  89.5715 270.5580 13.18686939165701
ONEWEB-0348             
1 49213U 21083AD  25045.46767106  .00000140  00000+0  31159-3 0  9992
2 49213  87.9294  11.4881 0001649  62.0432 298.0868 13.20774648172430
ONEWEB-0350             
1 49214U 21083AE  25045.50707169 -.00000214  00000+0 -62158-3 0  9998
2 49214  87.8884  57.1718 0001934  81.4770 278.6578 13.13468742166913
ONEWEB-0351             
1 49215U 21083AF  25045.46121600  .00000150  00000+0  33589-3 0  9997
2 49215  87.9292  11.4780 0002723  89.2018 270.9427 13.20772650172399
ONEWEB-0352             
1 49216U 21083AG  25045.48803376  .00000235  00000+0  60846-3 0  9997
2 49216  87.8886  57.2135 0002304  91.5236 268.6157 13.13470695167005
ONEWEB-0354             
1 49217U 21083AH  25045.41085655  .00000094  00000+0  19910-3 0  9992
2 49217  87.9294  11.4818 0001911  72.3019 287.8323 13.20772079172428
ONEWEB-0355             
1 49218U 21083AJ  25045.44199994 -.00000437  00000+0 -12318-2 0  9995
2 49218  87.8882  57.2214 0002035  86.9025 273.2337 13.13469798166874
ONEWEB-0357             
1 49219U 21083AK  25045.33193952  .00000095  00000+0  20242-3 0  9996
2 49219  87.9289  11.5076 0002070  83.1686 276.9683 13.20770723172419
ONEWEB-0332             
1 49279U 21090A   25045.45586601 -.00000041  00000+0 -14611-3 0  9996
2 49279  87.9018  26.6925 0001982  94.0300 266.1057 13.14503062163509
ONEWEB-0347             
1 49280U 21090B   25045.39822407  .00000045  00000+0  79609-4 0  9999
2 49280  87.9293  11.4994 0001852  96.1427 263.9917 13.20770724166650
ONEWEB-0349             
1 49281U 21090C   25045.42979934  .00000002  00000+0 -26062-4 0  9991
2 49281  87.9294  11.4971 0001823  86.4856 273.6486 13.20771297165444
ONEWEB-0353             
1 49282U 21090D   25045.44793235 -.00000321  00000+0 -89960-3 0  9992
2 49282  87.9016  26.6801 0001923  94.6720 265.4629 13.14502522163508
ONEWEB-0356             
1 49283U 21090E   25045.42821851 -.00000181  00000+0 -47690-3 0  9995
2 49283  87.9295  11.4895 0000837  89.6726 270.4503 13.20769724165444
ONEWEB-0358             
1 49284U 21090F   25045.60971444  .00000108  00000+0  23366-3 0  9991
2 49284  87.9294  11.4425 0001681  78.4818 281.6504 13.20770872166193
ONEWEB-0359             
1 49285U 21090G   25045.60655750  .00000066  00000+0  12925-3 0  9993
2 49285  87.9292  11.4576 0001935  70.2611 289.8731 13.20770753166170
ONEWEB-0360             
1 49286U 21090H   25045.59708769  .00000079  00000+0  16269-3 0  9990
2 49286  87.9294  11.4648 0001875  77.4780 282.6563 13.20772398165486
ONEWEB-0361             
1 49287U 21090J   25045.42664086  .00000016  00000+0  76944-5 0  9995
2 49287  87.9293  11.4938 0001699  84.3932 275.7395 13.20770565165916
ONEWEB-0362             
1 49288U 21090K   25045.44780300 -.00000002  00000+0 -36145-4 0  9991
2 49288  87.9158  41.9371 0002254  85.3879 274.7511 13.19725857162586
ONEWEB-0363             
1 49289U 21090L   25045.59393216 -.00000005  00000+0 -43870-4 0  9990
2 49289  87.9293  11.4556 0001430  79.5773 280.5522 13.20772415165941
ONEWEB-0364             
1 49290U 21090M   25045.40452875  .00000039  00000+0  64322-4 0  9999
2 49290  87.9295  11.5214 0001722  86.5800 273.5530 13.20771965167054
ONEWEB-0365             
1 49291U 21090N   25045.45728646  .00000067  00000+0  13612-3 0  9993
2 49291  87.9151  41.8994 0001977  90.2830 269.8529 13.19725443162097
ONEWEB-0366             
1 49292U 21090P   25045.44478128 -.00000036  00000+0 -13197-3 0  9996
2 49292  87.9018  26.6921 0001766  86.6229 273.5103 13.14504099163489
ONEWEB-0367             
1 49293U 21090Q   25045.59235265  .00000031  00000+0  43687-4 0  9997
2 49293  87.9293  11.4510 0001932  85.5833 274.5521 13.20770811165464
ONEWEB-0368             
1 49294U 21090R   25045.41401176 -.00000030  00000+0 -10627-3 0  9993
2 49294  87.9296  11.5185 0001608 109.8853 250.2454 13.20770947166590
ONEWEB-0369             
1 49295U 21090S   25045.45254591 -.00000004  00000+0 -42462-4 0  9999
2 49295  87.9159  41.9203 0001897  90.8947 269.2403 13.19725661162085
ONEWEB-0370             
1 49296U 21090T   25045.60183355  .00000122  00000+0  26862-3 0  9990
2 49296  87.9294  11.4541 0002107  75.5812 284.5555 13.20773288165507
ONEWEB-0371             
1 49297U 21090U   25045.46044328  .00000050  00000+0  92572-4 0  9993
2 49297  87.9159  41.9084 0002000  88.4037 271.7325 13.19725987162121
ONEWEB-0372             
1 49298U 21090V   25045.59063901  .00000078  00000+0  15903-3 0  9998
2 49298  87.9293  11.4653 0001914  86.7391 273.3962 13.20772677165478
ONEWEB-0373             
1 49299U 21090W   25045.46610128  .00000149  00000+0  33491-3 0  9995
2 49299  87.9293  11.5027 0001619  83.0916 277.0402 13.20772397166649
ONEWEB-0374             
1 49300U 21090X   25045.50820968 -.00000183  00000+0 -52703-3 0  9995
2 49300  87.9018  26.6616 0001384  96.2492 263.8795 13.14503565163492
ONEWEB-0375             
1 49301U 21090Y   25045.45346603  .00000064  00000+0  12598-3 0  9993
2 49301  87.9294  11.4824 0001226  70.5392 289.5873 13.20771643166149
ONEWEB-0376             
1 49302U 21090Z   25045.45885524  .00000045  00000+0  79605-4 0  9996
2 49302  87.9152  41.9013 0002076  93.6435 266.4935 13.19725640162120
ONEWEB-0377             
1 49303U 21090AA  25045.59091283  .00000082  00000+0  16939-3 0  9994
2 49303  87.9291  11.4479 0001906  74.4820 285.6523 13.20770647166151
ONEWEB-0378             
1 49304U 21090AB  25045.46149541  .00000092  00000+0  19388-3 0  9994
2 49304  87.9293  11.4793 0001719  82.2697 277.8631 13.20771078165403
ONEWEB-0379             
1 49305U 21090AC  25045.50347445 -.00000101  00000+0 -30734-3 0  9994
2 49305  87.9019  26.6665 0001818  88.7084 271.4254 13.14504235163497
ONEWEB-0380             
1 49306U 21090AD  25045.45570704  .00000003  00000+0 -25586-4 0  9995
2 49306  87.9160  41.9220 0001752  83.0808 277.0524 13.19727665162097
ONEWEB-0381             
1 49307U 21090AE  25045.43609904  .00000035  00000+0  52974-4 0  9994
2 49307  87.9292  11.4863 0001780  77.9799 282.1534 13.20774030165441
ONEWEB-0382             
1 49308U 21090AF  25045.42347683  .00000069  00000+0  13714-3 0  9992
2 49308  87.9293  11.4840 0001431  85.3657 274.7640 13.20771667165434
ONEWEB-0383             
1 49309U 21090AG  25045.49709175 -.00000041  00000+0 -14424-3 0  9999
2 49309  87.9017  26.6510 0001720  89.3736 270.7590 13.14500349163522
ONEWEB-0384             
1 49310U 21090AH  25045.42029719  .00000019  00000+0  14904-4 0  9990
2 49310  87.9293  11.4998 0001320  89.1743 270.9542 13.20772314165446
ONEWEB-0385             
1 49311U 21090AJ  25045.41559596 -.00000018  00000+0 -76488-4 0  9997
2 49311  87.9296  11.5014 0001723  84.9079 275.2251 13.20772910165416
ONEWEB-0386             
1 49312U 21090AK  25045.43295338 -.00000011  00000+0 -60077-4 0  9991
2 49312  87.9287  11.4767 0001538  87.4318 272.6991 13.20772217165433
ONEWEB-0387             
1 49313U 21090AL  25045.41716797  .00000086  00000+0  17964-3 0  9993
2 49313  87.9279  11.5540 0001610  73.0765 287.0545 13.20770643165439
ONEWEB-0388             
1 49314U 21090AM  25045.45095099 -.00000003  00000+0 -39994-4 0  9992
2 49314  87.9158  41.9275 0001720  89.5720 270.5610 13.19725540162085
